[{"OBJECT_NAME":"LKW-2","OBJECT_ID":"2017-084A","EPOCH":"2026-03-09T23:47:21.969600","MEAN_MOTION":15.24935967,"ECCENTRICITY":0.00013207,"INCLINATION":97.1334,"RA_OF_ASC_NODE":113.4519,"ARG_OF_PERICENTER":172.3175,"MEAN_ANOMALY":187.8084,"EPHEMERIS_TYPE":0,"CLASSIFICATION_TYPE":"U","NORAD_CAT_ID":43080,"ELEMENT_SET_NO":999,"REV_AT_EPOCH":45656,"BSTAR":0.00032202263,"MEAN_MOTION_DOT":7.955e-5,"MEAN_MOTION_DDOT":0},{"OBJECT_NAME":"COSMOS 2251 DEB","OBJECT_ID":"1993-036AUQ","EPOCH":"2026-03-03T09:54:29.808000","MEAN_MOTION":15.20399634,"ECCENTRICITY":0.00017924,"INCLINATION":74.0063,"RA_OF_ASC_NODE":215.2278,"ARG_OF_PERICENTER":345.5252,"MEAN_ANOMALY":40.7842,"EPHEMERIS_TYPE":0,"CLASSIFICATION_TYPE":"U","NORAD_CAT_ID":35901,"ELEMENT_SET_NO":999,"REV_AT_EPOCH":87347,"BSTAR":0.0053747812,"MEAN_MOTION_DOT":0.00119078,"MEAN_MOTION_DDOT":0}]
